{
  "norad_id": 68260,
  "name": "STARLINK-37056",
  "history": [
    {
      "epoch": "2026-03-28T20:00:01.999872Z",
      "apogee_km": 329.14169899975514,
      "perigee_km": 327.229860501704,
      "latitude_deg": 29.88755936913576,
      "longitude_deg": 115.58369120589883,
      "height_km": 329.12836475710304,
      "semi_major_axis_km": 6706.32277975073,
      "eccentricity": 0.00014254,
      "inclination_deg": 53.159,
      "raan_deg": 216.4885,
      "arg_perigee_deg": 77.6967,
      "mean_anomaly_deg": 320.6922,
      "mean_motion_rev_day": 15.80796928
    },
    {
      "epoch": "2026-03-29T04:00:01.999584Z",
      "apogee_km": 328.80072153776473,
      "perigee_km": 327.3387684673544,
      "latitude_deg": 33.513358418251464,
      "longitude_deg": 118.67035641706148,
      "height_km": 329.87120395633633,
      "semi_major_axis_km": 6706.20674500256,
      "eccentricity": 0.000109,
      "inclination_deg": 53.1592,
      "raan_deg": 214.816,
      "arg_perigee_deg": 89.5967,
      "mean_anomaly_deg": 46.9296,
      "mean_motion_rev_day": 15.80837956
    },
    {
      "epoch": "2026-03-30T04:00:01.999584Z",
      "apogee_km": 328.6687960067984,
      "perigee_km": 327.56092319959225,
      "latitude_deg": 49.30200917378798,
      "longitude_deg": 22.253617967798327,
      "height_km": 333.2673378805186,
      "semi_major_axis_km": 6706.251859603195,
      "eccentricity": 8.26e-05,
      "inclination_deg": 53.1589,
      "raan_deg": 209.8045,
      "arg_perigee_deg": 99.2477,
      "mean_anomaly_deg": 331.6985,
      "mean_motion_rev_day": 15.80822004
    },
    {
      "epoch": "2026-03-30T06:00:02.000160Z",
      "apogee_km": 328.8141617850624,
      "perigee_km": 327.4510454254332,
      "latitude_deg": -4.5003330063590266,
      "longitude_deg": 115.09525123490029,
      "height_km": 329.82591839840063,
      "semi_major_axis_km": 6706.2696036052475,
      "eccentricity": 0.00010163,
      "inclination_deg": 53.159,
      "raan_deg": 209.3865,
      "arg_perigee_deg": 88.7211,
      "mean_anomaly_deg": 96.757,
      "mean_motion_rev_day": 15.8081573
    },
    {
      "epoch": "2026-03-30T14:00:03.000384Z",
      "apogee_km": 328.6350911786494,
      "perigee_km": 327.2052256713296,
      "latitude_deg": -51.209734419027534,
      "longitude_deg": 101.77250298693656,
      "height_km": 346.2423881462687,
      "semi_major_axis_km": 6706.057158424989,
      "eccentricity": 0.00010661,
      "inclination_deg": 53.1589,
      "raan_deg": 207.7178,
      "arg_perigee_deg": 73.3913,
      "mean_anomaly_deg": 210.2915,
      "mean_motion_rev_day": 15.8089085
    },
    {
      "epoch": "2026-03-30T22:00:00.999936Z",
      "apogee_km": 328.45356695362534,
      "perigee_km": 327.19432160750694,
      "latitude_deg": 17.251415812618188,
      "longitude_deg": 61.117678838273804,
      "height_km": 327.6756960946514,
      "semi_major_axis_km": 6705.960944280566,
      "eccentricity": 9.389e-05,
      "inclination_deg": 53.1588,
      "raan_deg": 206.047,
      "arg_perigee_deg": 66.8012,
      "mean_anomaly_deg": 314.9222,
      "mean_motion_rev_day": 15.80924873
    },
    {
      "epoch": "2026-03-31T16:06:59.487840Z",
      "apogee_km": 328.2135963551955,
      "perigee_km": 327.3632850093172,
      "latitude_deg": -1.4037715333182552e-05,
      "longitude_deg": 131.47037311548212,
      "height_km": 328.73797309694305,
      "semi_major_axis_km": 6705.9254406822565,
      "eccentricity": 6.34e-05,
      "inclination_deg": 53.1592,
      "raan_deg": 202.2638,
      "arg_perigee_deg": 94.1824,
      "mean_anomaly_deg": 265.9271,
      "mean_motion_rev_day": 15.80937428
    },
    {
      "epoch": "2026-04-01T17:54:35.642304Z",
      "apogee_km": 328.4840948829378,
      "perigee_km": 326.8720169434955,
      "latitude_deg": 6.549405023963357e-05,
      "longitude_deg": 98.12429382495385,
      "height_km": 329.1892820669737,
      "semi_major_axis_km": 6705.815055913216,
      "eccentricity": 0.0001202,
      "inclination_deg": 53.1592,
      "raan_deg": 196.8776,
      "arg_perigee_deg": 137.3602,
      "mean_anomaly_deg": 222.7515,
      "mean_motion_rev_day": 15.80976464
    },
    {
      "epoch": "2026-04-02T18:11:09.156768Z",
      "apogee_km": 328.22822493644253,
      "perigee_km": 326.84283299195886,
      "latitude_deg": 2.4733437110356325e-06,
      "longitude_deg": 87.91882519936301,
      "height_km": 328.41941673077156,
      "semi_major_axis_km": 6705.672528964201,
      "eccentricity": 0.0001033,
      "inclination_deg": 53.1594,
      "raan_deg": 191.8088,
      "arg_perigee_deg": 87.1725,
      "mean_anomaly_deg": 272.9416,
      "mean_motion_rev_day": 15.81026869
    },
    {
      "epoch": "2026-04-02T18:11:09.157632Z",
      "apogee_km": 328.2280908229932,
      "perigee_km": 326.8429671054091,
      "latitude_deg": 4.316688567856502e-06,
      "longitude_deg": 87.91882296275959,
      "height_km": 328.41942334635314,
      "semi_major_axis_km": 6705.672528964201,
      "eccentricity": 0.00010328,
      "inclination_deg": 53.1594,
      "raan_deg": 191.8088,
      "arg_perigee_deg": 87.1725,
      "mean_anomaly_deg": 272.9416,
      "mean_motion_rev_day": 15.81026869
    },
    {
      "epoch": "2026-04-03T15:25:41.966112Z",
      "apogee_km": 328.7372653818338,
      "perigee_km": 327.18949741380675,
      "latitude_deg": -6.421120843671155e-05,
      "longitude_deg": 123.97387374008392,
      "height_km": 328.6691777248308,
      "semi_major_axis_km": 6706.10038139782,
      "eccentricity": 0.0001154,
      "inclination_deg": 53.1589,
      "raan_deg": 187.373,
      "arg_perigee_deg": 74.0966,
      "mean_anomaly_deg": 286.0183,
      "mean_motion_rev_day": 15.80875566
    },
    {
      "epoch": "2026-04-04T17:13:17.947776Z",
      "apogee_km": 329.1708035490574,
      "perigee_km": 326.93093680041784,
      "latitude_deg": 4.736143112261911e-05,
      "longitude_deg": 90.62873820218181,
      "height_km": 328.5404867873727,
      "semi_major_axis_km": 6706.187870174737,
      "eccentricity": 0.000167,
      "inclination_deg": 53.1584,
      "raan_deg": 181.987,
      "arg_perigee_deg": 67.5564,
      "mean_anomaly_deg": 292.5636,
      "mean_motion_rev_day": 15.8084463
    },
    {
      "epoch": "2026-04-05T14:27:48.363840Z",
      "apogee_km": 329.0633771410976,
      "perigee_km": 326.4632313571283,
      "latitude_deg": -1.470531128327602e-05,
      "longitude_deg": 126.69418801586728,
      "height_km": 328.1879601812497,
      "semi_major_axis_km": 6705.900304249113,
      "eccentricity": 0.00019387,
      "inclination_deg": 53.1581,
      "raan_deg": 177.5516,
      "arg_perigee_deg": 67.7542,
      "mean_anomaly_deg": 292.3686,
      "mean_motion_rev_day": 15.80946317
    }
  ]
}